STARLINK-35851          
1 66356U 25254J   25332.52792156  .00202692  00000+0  13519-2 0  9997
2 66356  53.1586 345.4718 0000976 105.1636 254.9492 15.74246192  3449
STARLINK-35817          
1 66357U 25254K   25332.52758516  .00231092  00000+0  15349-2 0  9999
2 66357  53.1586 345.4699 0001274  88.5349 271.5817 15.74254389  3448
STARLINK-35807          
1 66358U 25254L   25332.52724628  .00228131  00000+0  15157-2 0  9994
2 66358  53.1587 345.4671 0001168  89.4366 270.6787 15.74256972  3447
STARLINK-35805          
1 66359U 25254M   25332.52691072  .00168645  00000+0  11310-2 0  9991
2 66359  53.1587 345.4653 0001293  87.4083 272.7085 15.74228135  4581
STARLINK-35823          
1 66360U 25254N   25332.58972138  .00209922  00000+0  13984-2 0  9997
2 66360  53.1586 345.1448 0001279  70.3410 289.7748 15.74251710  3454
STARLINK-35813          
1 66361U 25254P   25332.52657018  .00203017  00000+0  13538-2 0  9993
2 66361  53.1586 345.4631 0000924  88.8575 271.2551 15.74249011  3442
STARLINK-35822          
1 66362U 25254Q   25332.52555602  .00230458  00000+0  15307-2 0  9995
2 66362  53.1583 345.4560 0000680  84.5836 275.5262 15.74255901  3444
STARLINK-35806          
1 66363U 25254R   25332.52589621  .00170635  00000+0  11438-2 0  9995
2 66363  53.1585 345.4579 0001316  95.7419 264.3751 15.74231803  3449
STARLINK-35797          
1 66364U 25254S   25332.58868805  .00221187  00000+0  14675-2 0  9991
2 66364  53.1584 345.1379 0000967  62.0967 298.0151 15.74310271  3456
STARLINK-35827          
1 66365U 25254T   25332.52453465  .00259232  00000+0  17121-2 0  9999
2 66365  53.1583 345.4491 0001025  93.4295 266.6842 15.74301469  3448
STARLINK-35845          
1 66366U 25254U   25332.52488050  .00214557  00000+0  14287-2 0  9999
2 66366  53.1583 345.4506 0000959  78.2612 281.8515 15.74246229  3443
STARLINK-35846          
1 66367U 25254V   25332.52420565  .00161508  00000+0  10843-2 0  9998
2 66367  53.1582 345.4458 0001363  89.0471 271.0705 15.74226539  3446
